CCSDS_OMM_VERS = 2.0
CREATION_DATE  = 
ORIGINATOR     = 

OBJECT_NAME    = CZ-2C R/B
OBJECT_ID      = 2022-132E
CENTER_NAME    = EARTH
REF_FRAME      = TEME
TIME_SYSTEM    = UTC
MEAN_ELEMENT_THEORY = SGP/SGP4

EPOCH          = 2025-12-06T04:03:54.368064
MEAN_MOTION    = 15.54210647
ECCENTRICITY   = .00236714
INCLINATION    = 97.2943
RA_OF_ASC_NODE = 336.2448
ARG_OF_PERICENTER = 78.4582
MEAN_ANOMALY   = 281.9328

EPHEMERIS_TYPE = 0
CLASSIFICATION_TYPE = U
NORAD_CAT_ID   = 54039
ELEMENT_SET_NO = 999
REV_AT_EPOCH   = 17581
BSTAR          = .77107466E-3
MEAN_MOTION_DOT = .50983E-3
MEAN_MOTION_DDOT = 0

CCSDS_OMM_VERS = 2.0
CREATION_DATE  = 
ORIGINATOR     = 

OBJECT_NAME    = GSLV R/B
OBJECT_ID      = 2022-138AN
CENTER_NAME    = EARTH
REF_FRAME      = TEME
TIME_SYSTEM    = UTC
MEAN_ELEMENT_THEORY = SGP/SGP4

EPOCH          = 2025-12-06T00:48:10.610496
MEAN_MOTION    = 14.96079856
ECCENTRICITY   = .00235658
INCLINATION    = 87.3832
RA_OF_ASC_NODE = 197.7198
ARG_OF_PERICENTER = 127.7013
MEAN_ANOMALY   = 232.6360

EPHEMERIS_TYPE = 0
CLASSIFICATION_TYPE = U
NORAD_CAT_ID   = 54149
ELEMENT_SET_NO = 999
REV_AT_EPOCH   = 16992
BSTAR          = .42742562E-3
MEAN_MOTION_DOT = .4856E-4
MEAN_MOTION_DDOT = 0

CCSDS_OMM_VERS = 2.0
CREATION_DATE  = 
ORIGINATOR     = 

OBJECT_NAME    = XRISM
OBJECT_ID      = 2023-137A
CENTER_NAME    = EARTH
REF_FRAME      = TEME
TIME_SYSTEM    = UTC
MEAN_ELEMENT_THEORY = SGP/SGP4

EPOCH          = 2025-12-06T05:24:20.019744
MEAN_MOTION    = 15.10242696
ECCENTRICITY   = .00076388
INCLINATION    = 30.9997
RA_OF_ASC_NODE = 167.6025
ARG_OF_PERICENTER = 179.8539
MEAN_ANOMALY   = 180.2102

EPHEMERIS_TYPE = 0
CLASSIFICATION_TYPE = U
NORAD_CAT_ID   = 57800
ELEMENT_SET_NO = 999
REV_AT_EPOCH   = 12364
BSTAR          = .42949264E-3
MEAN_MOTION_DOT = .73E-4
MEAN_MOTION_DDOT = 0

CCSDS_OMM_VERS = 2.0
CREATION_DATE  = 
ORIGINATOR     = 

OBJECT_NAME    = ACS3
OBJECT_ID      = 2024-077B
CENTER_NAME    = EARTH
REF_FRAME      = TEME
TIME_SYSTEM    = UTC
MEAN_ELEMENT_THEORY = SGP/SGP4

EPOCH          = 2025-12-06T04:20:44.506752
MEAN_MOTION    = 13.85019149
ECCENTRICITY   = .00777349
INCLINATION    = 97.2742
RA_OF_ASC_NODE = 297.2508
ARG_OF_PERICENTER = 352.6662
MEAN_ANOMALY   = 7.3356

EPHEMERIS_TYPE = 0
CLASSIFICATION_TYPE = U
NORAD_CAT_ID   = 59588
ELEMENT_SET_NO = 999
REV_AT_EPOCH   = 8123
BSTAR          = .45635307E-1
MEAN_MOTION_DOT = .53165E-3
MEAN_MOTION_DDOT = 0

