CZ-2C R/B               
1 54039U 22132E   25340.16937926  .00050983  00000+0  77107-3 0  9997
2 54039  97.2943 336.2448 0023671  78.4582 281.9328 15.54210647175810
GSLV R/B                
1 54149U 22138AN  25340.03345614  .00004856  00000+0  42743-3 0  9994
2 54149  87.3832 197.7198 0023565 127.7013 232.6360 14.96079856169924
XRISM                   
1 57800U 23137A   25340.22523171  .00007300  00000+0  42949-3 0  9993
2 57800  30.9997 167.6025 0007638 179.8539 180.2102 15.10242696123648
ACS3                    
1 59588U 24077B   25340.18107068  .00053165  00000+0  45635-1 0  9993
2 59588  97.2742 297.2508 0077734 352.6662   7.3356 13.85019149 81238
